IRIDIUM 155             
1 43573U 18061E   21354.55091227  .00000154  00000+0  48069-4 0  9994
2 43573  86.3969  21.9185 0001889  83.0597 277.0814 14.34218445178347
IRIDIUM 154             
1 43574U 18061F   21354.53188212  .00000163  00000+0  51221-4 0  9998
2 43574  86.3973  21.9816 0002444  93.4312 266.7163 14.34216576178392
IRIDIUM 163             
1 43575U 18061G   21354.58261602  .00000142  00000+0  43744-4 0  9997
2 43575  86.3970  21.9258 0002138 105.4769 254.6663 14.34221101178379
IRIDIUM 156             
1 43576U 18061H   21354.55725871  .00000146  00000+0  45192-4 0  9991
2 43576  86.3971  21.9417 0001858  96.0983 264.0424 14.34219627178368
IRIDIUM 164             
1 43577U 18061J   21354.53822098  .00000152  00000+0  47182-4 0  9997
2 43577  86.3971  21.9650 0002371  96.6380 263.5086 14.34220051178402
IRIDIUM 159             
1 43578U 18061K   21354.57627457  .00000147  00000+0  45501-4 0  9991
2 43578  86.3970  21.9204 0002364  94.0610 266.0856 14.34221433178371
IRIDIUM 180             
1 43922U 19002A   21354.43624808  .00000142  00000+0  43538-4 0  9995
2 43922  86.3959 318.8463 0002865  99.2371 260.9149 14.34220347153962
IRIDIUM 176             
1 43923U 19002B   21354.43811685  .00000464  00000+0  69670-4 0  9999
2 43923  86.6093 318.8802 0002474  83.6842 276.4657 14.72255864157995
IRIDIUM 168             
1 43924U 19002C   21354.42989753  .00000140  00000+0  43087-4 0  9996
2 43924  86.3962 318.8799 0002426  88.9371 271.2103 14.34219788153948
IRIDIUM 173             
1 43925U 19002D   21354.41721317  .00000143  00000+0  44098-4 0  9992
2 43925  86.3959 318.8410 0002325  90.4556 269.6906 14.34219196153929
IRIDIUM 169             
1 43926U 19002E   21354.54448354  .00000158  00000+0  45176-4 0  9998
2 43926  86.4221 350.3900 0004623   7.2728 352.8536 14.38613825154496
IRIDIUM 172             
1 43927U 19002F   21354.41087160  .00000148  00000+0  45911-4 0  9995
2 43927  86.3958 318.8465 0002411  91.3648 268.7824 14.34220556153930
IRIDIUM 175             
1 43928U 19002G   21354.43190468  .00000468  00000+0  70334-4 0  9996
2 43928  86.6095 318.7079 0002594  97.4196 262.7316 14.72255622157986
IRIDIUM 171             
1 43929U 19002H   21354.46160861  .00000140  00000+0  43011-4 0  9993
2 43929  86.3968 318.9496 0002410  88.3012 271.8459 14.34220054153930
IRIDIUM 170             
1 43930U 19002J   21354.44431966  .00000468  00000+0  70341-4 0  9999
2 43930  86.6093 318.8835 0002589  90.2156 269.9358 14.72255416158009
IRIDIUM 167             
1 43931U 19002K   21354.45527354  .00000140  00000+0  43078-4 0  9992
2 43931  86.3960 318.8359 0002710  95.1715 264.9790 14.34217915153934
